TIANMU-1 20             
1 58661U 23208B   26193.26001593  .00004851  00000+0  15398-3 0  9994
2 58661  97.4463 310.3578 0006074 223.8322 136.2438 15.33135641141260
TIANMU-1 21             
1 58662U 23208C   26193.27524064  .00006246  00000+0  18325-3 0  9992
2 58662  97.4522 313.1638 0006409 215.2984 144.7836 15.35518380141416
TIANMU-1 22             
1 58663U 23208D   26193.29746991  .00004664  00000+0  15640-3 0  9999
2 58663  97.4518 309.6484 0002523 232.5049 127.5963 15.31401837141175
TIANMU-1 15             
1 58700U 24004A   26193.32929006  .00003311  00000+0  12814-3 0  9998
2 58700  97.4667  19.5201 0005861 240.9229 119.1423 15.26895819139612
TIANMU-1 16             
1 58701U 24004B   26193.31895037  .00003167  00000+0  12235-3 0  9990
2 58701  97.4615  18.7278 0004337 259.3863 100.6888 15.26998354139614
TIANMU-1 17             
1 58702U 24004C   26193.30442883  .00003243  00000+0  12523-3 0  9992
2 58702  97.4641  19.2075 0003844 266.6552  93.4247 15.26996137139607
TIANMU-1 18             
1 58703U 24004D   26193.34588966  .00003163  00000+0  12250-3 0  9998
2 58703  97.4660  19.5114 0003571 238.3868 121.7023 15.26912407139615
INSAT-3DS               
1 58990U 24033A   26193.14558608 -.00000153  00000+0  00000+0 0  9999
2 58990   0.0999 265.3458 0001033 226.0061 293.1741  1.00271233 47318
METEOR-M2 4             
1 59051U 24039A   26193.29551359 -.00000020  00000+0  10809-4 0  9992
2 59051  98.7023 152.2797 0008242  95.9891 264.2226 14.22431994122830
GOES 19                 
1 60133U 24119A   26193.29819539 -.00000246  00000+0  00000+0 0  9998
2 60133   0.0096 274.3288 0000603 292.0007 116.0078  1.00269743  7218
MTG-S1                  
1 64723U 25143A   26193.20646209 -.00000005  00000+0  00000+0 0  9991
2 64723   0.5863 344.3713 0003495 262.0651 117.5665  1.00272912  3675
METOP-SGA1              
1 65159U 25172A   26193.08652236 -.00000002  00000+0  19559-4 0  9991
2 65159  98.6631 252.2877 0007236 341.6268  18.4646 14.19818813 47321
FENGYUN 3H              
1 65815U 25219A   26192.84512953 -.00000001  00000+0  19995-4 0  9999
2 65815  98.6772 133.1354 0001213  62.6147 297.5153 14.19924500 40886
