OBJECT_NAME,OBJECT_ID,EPOCH,MEAN_MOTION,ECCENTRICITY,INCLINATION,RA_OF_ASC_NODE,ARG_OF_PERICENTER,MEAN_ANOMALY,EPHEMERIS_TYPE,CLASSIFICATION_TYPE,NORAD_CAT_ID,ELEMENT_SET_NO,REV_AT_EPOCH,BSTAR,MEAN_MOTION_DOT,MEAN_MOTION_DDOT
TIANMU-1 20,2023-208B,2026-07-12T06:14:25.376352,15.33135641,.0006074,97.4463,310.3578,223.8322,136.2438,0,U,58661,999,14126,.15398421E-3,.4851E-4,0
TIANMU-1 21,2023-208C,2026-07-12T06:36:20.791296,15.35518380,.00064092,97.4522,313.1638,215.2984,144.7836,0,U,58662,999,14141,.18324654E-3,.6246E-4,0
TIANMU-1 22,2023-208D,2026-07-12T07:08:21.400224,15.31401837,.00025238,97.4518,309.6484,232.5049,127.5963,0,U,58663,999,14117,.156402E-3,.4664E-4,0
TIANMU-1 15,2024-004A,2026-07-12T07:54:10.661184,15.26895819,.00058613,97.4667,19.5201,240.9229,119.1423,0,U,58700,999,13961,.12814265E-3,.3311E-4,0
TIANMU-1 16,2024-004B,2026-07-12T07:39:17.311968,15.26998354,.00043378,97.4615,18.7278,259.3863,100.6888,0,U,58701,999,13961,.12235275E-3,.3167E-4,0
TIANMU-1 17,2024-004C,2026-07-12T07:18:22.650912,15.26996137,.00038449,97.4641,19.2075,266.6552,93.4247,0,U,58702,999,13960,.12522852E-3,.3243E-4,0
TIANMU-1 18,2024-004D,2026-07-12T08:18:04.866624,15.26912407,.00035718,97.4660,19.5114,238.3868,121.7023,0,U,58703,999,13961,.12249715E-3,.3163E-4,0
INSAT-3DS,2024-033A,2026-07-12T03:29:38.637312,1.00271233,.00010332,0.0999,265.3458,226.0061,293.1741,0,U,58990,999,4731,0,-.153E-5,0
METEOR-M2 4,2024-039A,2026-07-12T07:05:32.374176,14.22431994,.00082423,98.7023,152.2797,95.9891,264.2226,0,U,59051,999,12283,.10808842E-4,-.2E-6,0
GOES 19,2024-119A,2026-07-12T07:09:24.081696,1.00269743,.0000603,0.0096,274.3288,292.0007,116.0078,0,U,60133,999,721,0,-.246E-5,0
MTG-S1,2025-143A,2026-07-12T04:57:18.324576,1.00272912,.00034956,0.5863,344.3713,262.0651,117.5665,0,U,64723,999,367,0,-.5E-7,0
METOP-SGA1,2025-172A,2026-07-12T02:04:35.531904,14.19818813,.00072365,98.6631,252.2877,341.6268,18.4646,0,U,65159,999,4732,.19558957E-4,-.2E-7,0
FENGYUN 3H,2025-219A,2026-07-11T20:16:59.191392,14.19924500,.00012139,98.6772,133.1354,62.6147,297.5153,0,U,65815,999,4088,.19995212E-4,-.1E-7,0
